STARLINK-2215           
1 48567U 21041Q   22244.12166779  .00001370  00000+0  11091-3 0  9996
2 48567  53.0546 152.7680 0001392  84.4230 275.6918 15.06384261 71293
